{
  "type": "Feature",
  "properties": {
    "name": "红山森林动物园",
    "osm_type": "way",
    "osm_id": 62344632,
    "source": "OpenStreetMap",
    "source_url": "https://www.openstreetmap.org/way/62344632",
    "attribution": "© OpenStreetMap contributors",
    "license": "ODbL-1.0",
    "snapshot_at": "2026-08-11",
    "osm_timestamp": "2026-03-15T10:17:37Z"
  },
  "geometry": {
    "type": "Polygon",
    "coordinates": [[
      [118.8010792, 32.0992386],
      [118.8009191, 32.09787],
      [118.8014845, 32.097852],
      [118.8015106, 32.0974719],
      [118.8013073, 32.097405],
      [118.80131, 32.097228],
      [118.8010693, 32.097177],
      [118.8011022, 32.0960804],
      [118.8014655, 32.0960725],
      [118.8016469, 32.0956136],
      [118.8014747, 32.094723],
      [118.8015703, 32.0945143],
      [118.801657, 32.0943585],
      [118.8019228, 32.0939167],
      [118.8022018, 32.0934528],
      [118.8021595, 32.0933654],
      [118.801509, 32.0920217],
      [118.8009082, 32.0907808],
      [118.800213, 32.0890409],
      [118.7990876, 32.0884088],
      [118.7980459, 32.0885141],
      [118.7972325, 32.0897489],
      [118.7977911, 32.0900961],
      [118.7979541, 32.0903644],
      [118.7982783, 32.0905624],
      [118.7984971, 32.0908861],
      [118.7983583, 32.0912553],
      [118.7973757, 32.0917123],
      [118.7970711, 32.091239],
      [118.7964938, 32.0903307],
      [118.7963013, 32.0904677],
      [118.7960865, 32.0906206],
      [118.795735, 32.0908708],
      [118.795382, 32.0910304],
      [118.7944854, 32.0914362],
      [118.7932948, 32.0921007],
      [118.7911514, 32.093192],
      [118.7911529, 32.0934705],
      [118.7915913, 32.0939555],
      [118.7923637, 32.0941555],
      [118.7927071, 32.0943918],
      [118.7931362, 32.0948281],
      [118.7941661, 32.0950332],
      [118.7941922, 32.0953312],
      [118.7942649, 32.0957153],
      [118.7944836, 32.0958203],
      [118.794583, 32.095868],
      [118.7947388, 32.0959002],
      [118.7949739, 32.0959603],
      [118.7950326, 32.0959861],
      [118.7951343, 32.0958504],
      [118.7952422, 32.0959235],
      [118.7952329, 32.0960436],
      [118.7952386, 32.0961537],
      [118.7953673, 32.096193],
      [118.7954222, 32.0962773],
      [118.7953779, 32.0963829],
      [118.7957167, 32.0965299],
      [118.796109, 32.0965611],
      [118.7961772, 32.0965522],
      [118.7967727, 32.096225],
      [118.7972313, 32.0962318],
      [118.7972849, 32.0967948],
      [118.7975846, 32.0970424],
      [118.7977731, 32.0970264],
      [118.7978958, 32.0967258],
      [118.7981862, 32.096759],
      [118.7981825, 32.0972913],
      [118.798901, 32.0974575],
      [118.7990445, 32.0976656],
      [118.7989023, 32.098011],
      [118.79931, 32.0982087],
      [118.799082, 32.0985927],
      [118.7980735, 32.0982405],
      [118.7974191, 32.0980791],
      [118.7972367, 32.0981428],
      [118.7979234, 32.098879],
      [118.79861, 32.0992516],
      [118.799361, 32.099497],
      [118.7999731, 32.0994359],
      [118.8010792, 32.0992386]
    ]]
  }
}
